{
  "type": "FeatureCollection",
  "features": [
    {
      "type": "Feature",
      "properties": {
        "norad_id": 37781,
        "name": "HAIYANG-2A",
        "group": "resource",
        "lat": 72.51192316197675,
        "lon": -149.28557003978747,
        "alt_km": 960.0495878774955,
        "timestamp": "2025-12-24T11:32:59.660681+00:00",
        "meta_object_name": "HAIYANG-2A",
        "meta_object_id": "2011-043A",
        "meta_epoch": "2025-12-24T05:49:08.196672",
        "meta_mean_motion": 13.78836801,
        "meta_eccentricity": 0.0001609,
        "meta_inclination": 99.3375,
        "meta_ra_of_asc_node": 358.9995,
        "meta_arg_of_pericenter": 68.4957,
        "meta_mean_anomaly": 291.6366,
        "meta_ephemeris_type": 0,
        "meta_classification_type": "U",
        "meta_norad_cat_id": 37781,
        "meta_element_set_no": 999,
        "meta_rev_at_epoch": 72257,
        "meta_bstar": 0.00027407,
        "meta_mean_motion_dot": 2.35e-06,
        "meta_mean_motion_ddot": 0,
        "tle_line1": "1 37781U 11043A   25358.24245598  .00000235  00000+0  27407-3 0  9999",
        "tle_line2": "2 37781  99.3375 358.9995 0001609  68.4957 291.6366 13.78836801722578"
      },
      "geometry": {
        "type": "Point",
        "coordinates": [
          -149.28557003978747,
          72.51192316197675
        ]
      }
    },
    {
      "type": "Feature",
      "properties": {
        "norad_id": 37791,
        "name": "RASAT",
        "group": "resource",
        "lat": 20.32978608018975,
        "lon": 84.55341381449455,
        "alt_km": 652.8675433551598,
        "timestamp": "2025-12-24T11:32:59.660692+00:00",
        "meta_object_name": "RASAT",
        "meta_object_id": "2011-044D",
        "meta_epoch": "2025-12-24T05:13:47.670240",
        "meta_mean_motion": 14.67923544,
        "meta_eccentricity": 0.0021343,
        "meta_inclination": 98.0647,
        "meta_ra_of_asc_node": 87.3053,
        "meta_arg_of_pericenter": 30.3817,
        "meta_mean_anomaly": 39.5507,
        "meta_ephemeris_type": 0,
        "meta_classification_type": "U",
        "meta_norad_cat_id": 37791,
        "meta_element_set_no": 999,
        "meta_rev_at_epoch": 76751,
        "meta_bstar": 6.6861e-05,
        "meta_mean_motion_dot": 3.35e-06,
        "meta_mean_motion_ddot": 0,
        "tle_line1": "1 37791U 11044D   25358.21791285  .00000335  00000+0  66861-4 0  9996",
        "tle_line2": "2 37791  98.0647  87.3053 0021343  30.3817  39.5507 14.67923544767514"
      },
      "geometry": {
        "type": "Point",
        "coordinates": [
          84.55341381449455,
          20.32978608018975
        ]
      }
    },
    {
      "type": "Feature",
      "properties": {
        "norad_id": 37841,
        "name": "SRMSAT",
        "group": "resource",
        "lat": 19.00038875398251,
        "lon": 145.44419670847498,
        "alt_km": 841.284001341478,
        "timestamp": "2025-12-24T11:32:59.660703+00:00",
        "meta_object_name": "SRMSAT",
        "meta_object_id": "2011-058D",
        "meta_epoch": "2025-12-23T20:30:47.361312",
        "meta_mean_motion": 14.11515025,
        "meta_eccentricity": 0.00119943,
        "meta_inclination": 19.973,
        "meta_ra_of_asc_node": 40.682,
        "meta_arg_of_pericenter": 75.0703,
        "meta_mean_anomaly": 81.788,
        "meta_ephemeris_type": 0,
        "meta_classification_type": "U",
        "meta_norad_cat_id": 37841,
        "meta_element_set_no": 999,
        "meta_rev_at_epoch": 73301,
        "meta_bstar": 8.1720318e-05,
        "meta_mean_motion_dot": 4.15e-06,
        "meta_mean_motion_ddot": 0,
        "tle_line1": "1 37841U 11058D   25357.85471483  .00000415  00000+0  81720-4 0  9991",
        "tle_line2": "2 37841  19.9730  40.6820 0011994  75.0703  81.7880 14.11515025733011"
      },
      "geometry": {
        "type": "Point",
        "coordinates": [
          145.44419670847498,
          19.00038875398251
        ]
      }
    },
    {
      "type": "Feature",
      "properties": {
        "norad_id": 38012,
        "name": "PLEIADES 1A",
        "group": "resource",
        "lat": 38.199510891368654,
        "lon": -102.43164139389754,
        "alt_km": 694.6433216638488,
        "timestamp": "2025-12-24T11:32:59.660714+00:00",
        "meta_object_name": "PLEIADES 1A",
        "meta_object_id": "2011-076F",
        "meta_epoch": "2025-12-24T04:42:25.093728",
        "meta_mean_motion": 14.5857135,
        "meta_eccentricity": 0.000109,
        "meta_inclination": 98.1811,
        "meta_ra_of_asc_node": 70.7876,
        "meta_arg_of_pericenter": 76.3115,
        "meta_mean_anomaly": 8.6753,
        "meta_ephemeris_type": 0,
        "meta_classification_type": "U",
        "meta_norad_cat_id": 38012,
        "meta_element_set_no": 999,
        "meta_rev_at_epoch": 74648,
        "meta_bstar": 8.9486e-05,
        "meta_mean_motion_dot": 3.71e-06,
        "meta_mean_motion_ddot": 0,
        "tle_line1": "1 38012U 11076F   25358.19612377  .00000371  00000+0  89486-4 0  9997",
        "tle_line2": "2 38012  98.1811  70.7876 0001090  76.3115   8.6753 14.58571350746489"
      },
      "geometry": {
        "type": "Point",
        "coordinates": [
          -102.43164139389754,
          38.199510891368654
        ]
      }
    },
    {
      "type": "Feature",
      "properties": {
        "norad_id": 38038,
        "name": "ZIYUAN 1-02C (ZY 1-02C)",
        "group": "resource",
        "lat": -78.36604492050611,
        "lon": -161.81293598362683,
        "alt_km": 777.2066175444452,
        "timestamp": "2025-12-24T11:32:59.660725+00:00",
        "meta_object_name": "ZIYUAN 1-02C (ZY 1-02C)",
        "meta_object_id": "2011-079A",
        "meta_epoch": "2025-12-24T05:33:20.310912",
        "meta_mean_motion": 14.38024666,
        "meta_eccentricity": 0.000755,
        "meta_inclination": 98.4318,
        "meta_ra_of_asc_node": 64.0329,
        "meta_arg_of_pericenter": 108.6523,
        "meta_mean_anomaly": 301.014,
        "meta_ephemeris_type": 0,
        "meta_classification_type": "U",
        "meta_norad_cat_id": 38038,
        "meta_element_set_no": 999,
        "meta_rev_at_epoch": 73406,
        "meta_bstar": 0.00020133,
        "meta_mean_motion_dot": 5.66e-06,
        "meta_mean_motion_ddot": 0,
        "tle_line1": "1 38038U 11079A   25358.23148508  .00000566  00000+0  20133-3 0  9992",
        "tle_line2": "2 38038  98.4318  64.0329 0007550 108.6523 301.0140 14.38024666734062"
      },
      "geometry": {
        "type": "Point",
        "coordinates": [
          -161.81293598362683,
          -78.36604492050611
        ]
      }
    },
    {
      "type": "Feature",
      "properties": {
        "norad_id": 38338,
        "name": "ARIRANG-3 (KOMPSAT-3)",
        "group": "resource",
        "lat": 7.925540286422156,
        "lon": 134.32945226170935,
        "alt_km": 691.4114764194919,
        "timestamp": "2025-12-24T11:32:59.660736+00:00",
        "meta_object_name": "ARIRANG-3 (KOMPSAT-3)",
        "meta_object_id": "2012-025B",
        "meta_epoch": "2025-12-24T04:11:39.219072",
        "meta_mean_motion": 14.61726905,
        "meta_eccentricity": 0.000473,
        "meta_inclination": 98.3339,
        "meta_ra_of_asc_node": 312.8513,
        "meta_arg_of_pericenter": 297.8334,
        "meta_mean_anomaly": 62.2387,
        "meta_ephemeris_type": 0,
        "meta_classification_type": "U",
        "meta_norad_cat_id": 38338,
        "meta_element_set_no": 999,
        "meta_rev_at_epoch": 72577,
        "meta_bstar": 0.00012207,
        "meta_mean_motion_dot": 5.6e-06,
        "meta_mean_motion_ddot": 0,
        "tle_line1": "1 38338U 12025B   25358.17475948  .00000560  00000+0  12207-3 0  9998",
        "tle_line2": "2 38338  98.3339 312.8513 0004730 297.8334  62.2387 14.61726905725772"
      },
      "geometry": {
        "type": "Point",
        "coordinates": [
          134.32945226170935,
          7.925540286422156
        ]
      }
    },
    {
      "type": "Feature",
      "properties": {
        "norad_id": 38709,
        "name": "EXACTVIEW-1 (ADS-1B)",
        "group": "resource",
        "lat": 55.52125238480203,
        "lon": 93.82999222984716,
        "alt_km": 804.4101364779326,
        "timestamp": "2025-12-24T11:32:59.660746+00:00",
        "meta_object_name": "EXACTVIEW-1 (ADS-1B)",
        "meta_object_id": "2012-039C",
        "meta_epoch": "2025-12-23T21:48:12.513024",
        "meta_mean_motion": 14.24912191,
        "meta_eccentricity": 0.0010178,
        "meta_inclination": 98.9638,
        "meta_ra_of_asc_node": 106.5329,
        "meta_arg_of_pericenter": 320.7138,
        "meta_mean_anomaly": 39.3301,
        "meta_ephemeris_type": 0,
        "meta_classification_type": "U",
        "meta_norad_cat_id": 38709,
        "meta_element_set_no": 999,
        "meta_rev_at_epoch": 69774,
        "meta_bstar": 7.8139e-05,
        "meta_mean_motion_dot": 1.36e-06,
        "meta_mean_motion_ddot": 0,
        "tle_line1": "1 38709U 12039C   25357.90847816  .00000136  00000+0  78139-4 0  9998",
        "tle_line2": "2 38709  98.9638 106.5329 0010178 320.7138  39.3301 14.24912191697745"
      },
      "geometry": {
        "type": "Point",
        "coordinates": [
          93.82999222984716,
          55.52125238480203
        ]
      }
    }
  ]
}